STARLINK-3799           
1 52382U 22045BD  22140.58334491 -.00079289  00000+0 -56462-3 0  9991
2 52382  53.2142 333.7936 0001239 103.0758 159.2481 15.73250896  5801
STARLINK-3811           
1 52383U 22045BE  22140.58334491 -.00063666  00000+0 -45189-3 0  9998
2 52383  53.2139 333.7915 0001142  73.3798 190.1222 15.73238984  1303
FALCON 9 DEB            
1 52384U 22045BF  22140.55762300  .00391285  73302-4  89636-3 0  9994
2 52384  53.2086 331.9253 0013639 319.4074  40.5938 15.96667655  3293
FALCON 9 DEB            
1 52385U 22045BG  22140.55289313  .00338716  57398-4  77274-3 0  9995
2 52385  53.2086 331.8937 0013745 329.3828  30.6399 15.96760414  3295
FALCON 9 DEB            
1 52386U 22045BH  22139.97356508  .00464537  10194-3  97544-3 0  9996
2 52386  53.2077 334.6772 0010667 312.0680  47.9443 15.98284282  3207
FALCON 9 DEB            
1 52387U 22045BJ  22139.96553028  .00473936  10778-3  91940-3 0  9997
2 52387  53.2116 334.6299 0008945 318.9314  41.1043 15.99714168  3193
JILIN-01 GAOFEN 4A      
1 52388U 22046A   22140.56047723  .00006377  00000+0  40166-3 0  9995
2 52388  97.5414 228.3380 0012897 209.3305 260.1088 15.09442596  3084
JILIN-01 GAOFEN 3D 4    
1 52389U 22046B   22140.55467509  .00006724  00000+0  41930-3 0  9999
2 52389  97.5404 228.3401 0012476 217.2296 239.3285 15.09791490  3074
JILIN-01 GAOFEN 3D 5    
1 52390U 22046C   22140.55392675  .00019513  00000+0  12042-2 0  9993
2 52390  97.5336 228.3269 0012107 211.6278 244.9586 15.09889646  3078
JILIN-01 GAOFEN 3D 6    
1 52391U 22046D   22140.55166821  .00006705  00000+0  41559-3 0  9991
2 52391  97.5466 228.3585 0013883 219.7377 236.1610 15.10002225  3078
JILIN-01 GAOFEN 3D 7    
1 52392U 22046E   22140.55024216  .00006911  00000+0  42691-3 0  9990
2 52392  97.5394 228.3414 0014547 219.4554 236.3127 15.10105368  3079
CZ-11 R/B               
1 52393U 22046F   22140.61147447  .01130282  23042-5  39340-3 0  9994
2 52393  97.2905 229.6684 0214400 245.4288 112.6240 15.89815609  3222
SPACEBEE-143            
1 52394U 22047A   22140.31011794  .00014030  00000+0  79787-3 0  9991
2 52394  97.4493 225.8442 0007639 270.5929  89.4427 15.12958220  4099
SPACEBEENZ-15           
1 52395U 22047B   22140.50681043  .00018850  00000+0  10637-2 0  9995
2 52395  97.4477 226.0394 0007779 265.8535  94.1808 15.13169497  4127
SPACEBEENZ-16           
1 52396U 22047C   22140.50682755  .00018253  00000+0  10303-2 0  9994
2 52396  97.4492 226.0403 0007925 266.0133  94.0192 15.13166188  4125
SPACEBEENZ-17           
1 52397U 22047D   22140.17623586  .00017974  00000+0  10151-2 0  9995
2 52397  97.4493 225.7169 0007858 267.5570  92.4762 15.13149722  4072
SPACEBEENZ-18           
1 52398U 22047E   22140.50695670  .00018944  00000+0  10694-2 0  9996
2 52398  97.4490 226.0404 0007864 266.4745  93.5587 15.13155632  4125
SPACEBEE-140            
1 52399U 22047F   22140.50727055  .00016581  00000+0  93825-3 0  9993
2 52399  97.4492 226.0397 0007747 266.2390  93.7955 15.13098390  4143
SPACEBEE-141            
1 52400U 22047G   22140.24303461  .00014062  00000+0  79776-3 0  9999
2 52400  97.4491 225.7811 0007844 267.0553  92.9781 15.13042147  4080
SPACEBEE-142            
1 52401U 22047H   22140.50789977  .00014315  00000+0  81274-3 0  9996
2 52401  97.4492 226.0388 0007638 267.7299  92.3057 15.13013715  4124
2022-047J               
1 52402U 22047J   22140.50762213  .00018480  00000+0  10450-2 0  9995
2 52402  97.4485 226.0355 0008534 270.2946  89.7307 15.13095143  4128
SPACEBEENZ-22           
1 52403U 22047K   22140.50767871  .00017948  00000+0  10154-2 0  9990
2 52403  97.4490 226.0355 0008640 270.0078  90.0163 15.13082753  4125
2022-047L               
1 52404U 22047L   22140.04464088  .00018078  00000+0  10226-2 0  9999
2 52404  97.4492 225.5840 0008782 271.7311  88.2914 15.13085115  4056
SPACEBEENZ-21           
1 52405U 22047M   22140.50768569  .00018727  00000+0  10591-2 0  9998
2 52405  97.4485 226.0358 0008604 269.8679  90.1566 15.13087452  4126
SPACEBEE-148            
1 52406U 22047N   22140.17738886  .00015735  00000+0  89259-3 0  9995
2 52406  97.4486 225.7119 0008444 271.6974  88.3290 15.13016430  4075
SPACEBEE-149            
1 52407U 22047P   22140.50861225  .00014321  00000+0  81446-3 0  9997
2 52407  97.4486 226.0341 0008352 270.5836  89.4438 15.12947358  4123
SPACEBEE-153            
1 52408U 22047Q   22140.50849921  .00016755  00000+0  95068-3 0  9995
2 52408  97.4513 226.0392 0008732 283.5411  76.4847 15.12992663  4125
2022-047R               
1 52409U 22047R   22140.50876735  .00014926  00000+0  84867-3 0  9992
2 52409  97.4487 226.0340 0008314 271.6881  88.3398 15.12946710  4129
2022-047S               
1 52410U 22047S   22139.51668449  .00014073  00000+0  80118-3 0  9992
2 52410  97.4491 225.0685 0007699 273.9876  86.0475 15.12918675  3973
SPACEBEE-145            
1 52411U 22047T   22140.50893587  .00014415  00000+0  82030-3 0  9992
2 52411  97.4488 226.0378 0007549 270.2190  89.8177 15.12929107  4123
SPACEBEE-146            
1 52412U 22047U   22140.50919521  .00013844  00000+0  78876-3 0  9998
2 52412  97.4490 226.0372 0007575 270.7283  89.3081 15.12893630  4128
SPACEBEE-151            
1 52413U 22047V   22140.50924340  .00014515  00000+0  82646-3 0  9990
2 52413  97.4486 226.0334 0008259 272.8340  87.1946 15.12901813  4128
SPACEBEE-152            
1 52414U 22047W   22140.50959799  .00014014  00000+0  79913-3 0  9994
2 52414  97.4485 226.0329 0008167 272.7363  87.2933 15.12857472  4122
SPACEBEE-147            
1 52415U 22047X   22140.50973183  .00014528  00000+0  82832-3 0  9992
2 52415  97.4492 226.0365 0007548 272.7160  87.3207 15.12858642  4123
SPACEBEE-155            
1 52416U 22047Y   22140.50986073  .00014253  00000+0  81290-3 0  9997
2 52416  97.4483 226.0329 0008602 277.5613  82.4640 15.12844648  4120
SPACEBEE-154            
1 52417U 22047Z   22140.50995802  .00014265  00000+0  81386-3 0  9997
2 52417  97.4485 226.0325 0008161 274.3336  85.6963 15.12835717  4126
2022-047AA              
1 52418U 22047AA  22140.17954997  .00013550  00000+0  77420-3 0  9991
2 52418  97.4477 225.6968 0008087 276.1752  83.8558 15.12794555  4073
2022-047AB              
1 52419U 22047AB  22140.51055377  .00012115  00000+0  69346-3 0  9998
2 52419  97.4478 226.0194 0008103 275.4259  84.6048 15.12756274  4129
2022-047AC              
1 52420U 22047AC  22140.17979495  .00013524  00000+0  77317-3 0  9990
2 52420  97.4479 225.6968 0008117 276.8550  83.1758 15.12773316  4072
2022-047AD              
1 52421U 22047AD  22140.50862080  .00030702  00000+0  17260-2 0  9996
2 52421  97.4476 226.0224 0008631 277.1700  82.8549 15.13194199  4129
BRO-6                   
1 52422U 22047AE  22140.52576782  .00008309  00000+0  48309-3 0  9997
2 52422  97.4511 226.0497 0006700 287.2540 129.0412 15.12305057  4120
2022-047AF              
1 52423U 22047AF  22140.51694779  .00011263  00000+0  65542-3 0  9995
2 52423  97.4480 226.0192 0006391 293.1968  66.8589 15.12191199  4127
2022-047AG              
1 52424U 22047AG  22140.51847893  .00013571  00000+0  79087-3 0  9996
2 52424  97.4533 226.0217 0007594 293.5509  66.4923 15.12085838  4126
2022-047AH              
1 52425U 22047AH  22140.51860746  .00012381  00000+0  72212-3 0  9990
2 52425  97.4492 226.0261 0007554 297.0356  63.0103 15.12077070  4127
2022-047AJ              
1 52426U 22047AJ  22140.51806080  .00021902  00000+0  12675-2 0  9997
2 52426  97.4494 226.0276 0007844 297.8985  62.1451 15.12230880  4120
2022-047AK              
1 52427U 22047AK  22140.51905898  .00016212  00000+0  94404-3 0  9994
2 52427  97.4495 226.0271 0007716 299.4391  60.6069 15.12073433  4121
JILIN-01 KUANFU 01C     
1 52443U 22048A   22140.48472808  .00003156  00000+0  20103-3 0  9997
2 52443  97.6830 205.0967 0012202 211.5444 243.2458 15.09449486  2325
JILIN-01 GAOFEN 3D 27   
1 52444U 22048B   22139.56387025  .00013583  00000+0  84918-3 0  9990
2 52444  97.6802 204.1754 0013538 214.6167 283.5315 15.09486292  2198
JILIN-01 GAOFEN 3D 28   
1 52445U 22048C   22139.56306859 -.00003858  00000+0 -23598-3 0  9990
2 52445  97.6787 204.1724 0013887 215.2338 283.0585 15.09565793  2190
JILIN-01 GAOFEN 3D 29   
1 52446U 22048D   22139.76344697 -.00002397  00000+0 -14494-3 0  9997
2 52446  97.6798 204.3777 0014150 217.1856 290.7250 15.09586570  2227
JILIN-01 GAOFEN 3D 30   
1 52447U 22048E   22140.28197002  .00016545  00000+0  10232-2 0  9996
2 52447  97.6788 204.8979 0014242 218.5191 230.7139 15.09827526  2303
JILIN-01 GAOFEN 3D 31   
1 52448U 22048F   22140.62485661  .00007630  00000+0  47327-3 0  9997
2 52448  97.6798 205.2434 0013514 220.2756 298.4652 15.09940764  2350
JILIN-01 GAOFEN 3D 32   
1 52449U 22048G   22139.76075273  .00003742  00000+0  23422-3 0  9995
2 52449  97.6809 204.3803 0013159 224.7489 280.8319 15.09961930  2220
JILIN-01 GAOFEN 3D 33   
1 52450U 22048H   22140.14211360  .00017383  00000+0  10684-2 0  9991
2 52450  97.6802 204.7624 0013658 223.7955 195.6948 15.10048355  2287
STARLINK-3870           
1 52451U 22049A   22140.58334491 -.00043061  00000+0 -30399-3 0  9992
2 52451  53.2140 196.1604 0002178  24.2946  53.6555 15.73194663  2406
STARLINK-3909           
1 52452U 22049B   22140.58334491 -.00058145  00000+0 -41267-3 0  9998
2 52452  53.2154 196.1606 0001958  27.7517  49.6059 15.73201244  2409
STARLINK-3872           
1 52453U 22049C   22140.58334491  .00020072  00000+0  14711-3 0  9999
2 52453  53.2157 196.1578 0001931  23.5902  55.6289 15.73196468  2407
STARLINK-3888           
1 52454U 22049D   22140.58334491 -.00115965  00000+0 -83337-3 0  9998
2 52454  53.2153 196.1582 0002318  27.0886  51.5413 15.73193087  2407
STARLINK-3890           
1 52455U 22049E   22140.58334491 -.00029728  00000+0 -20819-3 0  9996
2 52455  53.2155 196.1560 0001939  26.3979  53.5078 15.73191949  2403
